OBJECT_NAME,OBJECT_ID,EPOCH,MEAN_MOTION,ECCENTRICITY,INCLINATION,RA_OF_ASC_NODE,ARG_OF_PERICENTER,MEAN_ANOMALY,EPHEMERIS_TYPE,CLASSIFICATION_TYPE,NORAD_CAT_ID,ELEMENT_SET_NO,REV_AT_EPOCH,BSTAR,MEAN_MOTION_DOT,MEAN_MOTION_DDOT
SHIJIAN-17 (SJ-17),2016-065A,2026-07-09T19:44:44.187360,0.99863387,.0001887,5.8072,72.3301,46.2716,307.5005,0,U,41838,999,3542,0,.11E-5,0
GOES 16,2016-071A,2026-07-10T15:03:24.728256,1.00270935,.00005191,0.3915,85.5258,94.1728,230.0146,0,U,41866,999,3533,0,-.82E-6,0
TIANLIAN 1-04,2016-072A,2026-07-10T14:26:50.491392,1.00270403,.00438481,0.9270,82.7761,90.1707,149.0862,0,U,41869,999,3553,0,.39E-6,0
WGS F8 (USA 272),2016-075A,2026-07-10T12:52:35.181984,1.00271329,.0000179,0.0142,49.6366,307.0868,274.7027,0,U,41879,999,3505,0,-.193E-5,0
FENGYUN 4A,2016-077A,2026-07-10T14:11:36.949632,1.00270870,.0008406,2.3782,80.0289,158.7958,26.3726,0,U,41882,999,3516,0,-.349E-5,0
ECHOSTAR 19,2016-079A,2026-07-10T14:58:26.895360,1.00269731,.00011886,0.0175,43.4638,67.3182,305.2701,0,U,41893,999,3493,0,-.129E-5,0
JCSAT-110A (JCSAT-15),2016-082A,2026-07-10T14:07:44.822208,1.00270912,.00006078,0.0186,31.8658,116.3022,102.3443,0,U,41903,999,3499,0,-.341E-5,0
STAR ONE D1,2016-082B,2026-07-10T13:12:23.976000,1.00266994,.0002328,0.0321,58.1803,69.7049,274.7202,0,U,41904,999,3500,0,0,0
TJS-2,2017-001A,2026-07-10T14:39:38.471616,1.00269774,.00007946,0.8907,85.0162,107.7105,22.2676,0,U,41911,999,3495,0,.3E-7,0
SBIRS GEO-4 (USA 273),2017-004A,2026-07-10T13:42:28.592064,1.00283044,.00025811,2.2859,43.8545,66.6201,45.1170,0,U,41937,999,3483,0,.134E-5,0
HISPASAT 36W-1,2017-006A,2026-07-10T01:27:32.480640,1.00271483,.00010506,0.0095,294.2767,174.9748,164.6328,0,U,41942,999,3447,0,-.233E-5,0
TELKOM 3S,2017-007A,2026-07-10T14:09:59.606208,1.00272811,.00020358,0.0182,52.3779,53.4012,153.2239,0,U,41944,999,3437,0,-.353E-5,0
INTELSAT 32E (IS-32E),2017-007B,2026-07-10T03:08:08.520288,1.00267562,.00003413,0.0258,33.0821,235.9737,22.8541,0,U,41945,999,3445,0,0,0
ECHOSTAR 23,2017-014A,2026-07-10T13:05:02.180832,1.00271591,.00020726,0.0293,41.4421,67.4998,265.8885,0,U,42070,999,3415,0,0,0
WGS F9 (USA 275),2017-016A,2026-07-10T01:34:16.835232,1.00270853,.00004344,0.0211,10.1501,213.9350,75.4855,0,U,42075,999,3412,0,0,0
SES-10,2017-017A,2026-07-09T16:09:20.270592,1.00272604,.00025351,0.0175,43.5004,74.3522,345.1935,0,U,42432,999,3398,0,-.26E-5,0
CHINASAT 16 (SJ-13),2017-018A,2026-07-10T07:17:13.773696,1.00269850,.00048271,0.0919,88.9552,133.8984,285.2198,0,U,42662,999,3398,0,-.341E-5,0
KOREASAT 7,2017-023A,2026-07-10T14:09:22.165632,1.00273600,.00009042,0.0189,54.1596,85.5557,117.0192,0,U,42691,999,3360,0,-.352E-5,0
SGDC,2017-023B,2026-07-09T09:50:06.627552,1.00270363,.00023597,0.0136,28.9127,88.7989,242.3140,0,U,42692,999,3362,0,-.236E-5,0
GSAT-9,2017-024A,2026-07-10T15:08:10.097952,1.00269425,.00022858,0.0756,91.7964,27.2963,133.8020,0,U,42695,999,3353,0,-.276E-5,0
INMARSAT 5-F4,2017-025A,2026-07-09T23:49:38.606880,1.00270257,.00005995,0.0285,39.4093,170.9993,131.4380,0,U,42698,999,3350,0,0,0
SES-15,2017-026A,2026-07-10T15:16:17.088960,1.00266798,.00003097,0.0248,328.5355,127.2873,292.6352,0,U,42709,999,766,0,.7E-6,0
QZS-2 (MICHIBIKI-2),2017-028A,2026-07-10T10:56:38.728320,1.00277951,.07579699,39.3930,242.8106,269.5457,82.5332,0,U,42738,999,786,0,-.91E-6,0
VIASAT-2,2017-029A,2026-07-10T07:15:38.636064,1.00270730,.00001745,0.0202,302.3496,272.7054,112.2079,0,U,42740,999,3343,0,-.255E-5,0
EUTELSAT 172B,2017-029B,2026-07-10T04:09:25.146144,1.00271569,.00001372,0.0303,125.2258,110.2477,286.9866,0,U,42741,999,3397,0,.5E-7,0
GSAT-19,2017-031A,2026-07-10T13:49:57.873792,1.00272818,.00063041,0.0269,86.4399,359.3378,98.1007,0,U,42747,999,3338,0,.135E-5,0
ECHOSTAR 21,2017-032A,2026-07-10T13:39:06.415200,1.00272095,.00020306,1.7702,357.1754,107.0273,39.3206,0,U,42749,999,3333,0,.76E-6,0
BULGARIASAT-1,2017-038A,2026-07-10T07:33:38.628288,1.00272991,.00031609,0.0111,313.3363,161.4514,288.7637,0,U,42801,999,3307,0,.22E-6,0
HELLAS-SAT 3,2017-040A,2026-07-10T13:47:28.114080,1.00268970,.00033123,0.0404,37.7032,36.1469,100.5177,0,U,42814,999,3304,0,.162E-5,0
GSAT-17,2017-040B,2026-07-10T13:24:38.653344,1.00271918,.00020853,0.0600,88.6786,170.0421,324.4105,0,U,42815,999,3302,0,-.248E-5,0
INTELSAT 35E (IS-35E),2017-041A,2026-07-10T11:43:48.293760,1.00270458,.00015717,0.0032,111.0474,358.6024,320.2234,0,U,42818,999,3304,0,-.228E-5,0
COSMOS 2520,2017-046A,2026-07-10T10:23:52.689408,1.00271858,.00004678,0.0364,105.7305,12.6569,10.9309,0,U,42907,999,3263,0,.147E-5,0
