SHIJIAN-17 (SJ-17)      
1 41838U 16065A   26190.82273365  .00000110  00000+0  00000+0 0  9996
2 41838   5.8072  72.3301 0001887  46.2716 307.5005  0.99863387 35421
GOES 16                 
1 41866U 16071A   26191.62736954 -.00000082  00000+0  00000+0 0  9990
2 41866   0.3915  85.5258 0000519  94.1728 230.0146  1.00270935 35331
TIANLIAN 1-04           
1 41869U 16072A   26191.60197328  .00000039  00000+0  00000+0 0  9999
2 41869   0.9270  82.7761 0043848  90.1707 149.0862  1.00270403 35533
WGS F8 (USA 272)        
1 41879U 16075A   26191.53651831 -.00000193  00000+0  00000+0 0  9991
2 41879   0.0142  49.6366 0000179 307.0868 274.7027  1.00271329 35058
FENGYUN 4A              
1 41882U 16077A   26191.59139988 -.00000349  00000+0  00000+0 0  9990
2 41882   2.3782  80.0289 0008406 158.7958  26.3726  1.00270870 35161
ECHOSTAR 19             
1 41893U 16079A   26191.62392240 -.00000129  00000+0  00000+0 0  9996
2 41893   0.0175  43.4638 0001188  67.3182 305.2701  1.00269731 34939
JCSAT-110A (JCSAT-15)   
1 41903U 16082A   26191.58871322 -.00000341  00000+0  00000+0 0  9996
2 41903   0.0186  31.8658 0000607 116.3022 102.3443  1.00270912 34997
STAR ONE D1             
1 41904U 16082B   26191.55027750  .00000000  00000+0  00000+0 0  9993
2 41904   0.0321  58.1803 0002328  69.7049 274.7202  1.00266994 35000
TJS-2                   
1 41911U 17001A   26191.61086194  .00000003  00000+0  00000+0 0  9990
2 41911   0.8907  85.0162 0000794 107.7105  22.2676  1.00269774 34957
SBIRS GEO-4 (USA 273)   
1 41937U 17004A   26191.57116426  .00000134  00000+0  00000+0 0  9993
2 41937   2.2859  43.8545 0002581  66.6201  45.1170  1.00283044 34836
HISPASAT 36W-1          
1 41942U 17006A   26191.06079260 -.00000233  00000+0  00000+0 0  9990
2 41942   0.0095 294.2767 0001050 174.9748 164.6328  1.00271483 34473
TELKOM 3S               
1 41944U 17007A   26191.59027322 -.00000353  00000+0  00000+0 0  9996
2 41944   0.0182  52.3779 0002035  53.4012 153.2239  1.00272811 34377
INTELSAT 32E (IS-32E)   
1 41945U 17007B   26191.13065417  .00000000  00000+0  00000+0 0  9992
2 41945   0.0258  33.0821 0000341 235.9737  22.8541  1.00267562 34458
ECHOSTAR 23             
1 42070U 17014A   26191.54516413  .00000000  00000+0  00000+0 0  9992
2 42070   0.0293  41.4421 0002072  67.4998 265.8885  1.00271591 34150
WGS F9 (USA 275)        
1 42075U 17016A   26191.06547263  .00000000  00000+0  00000+0 0  9993
2 42075   0.0211  10.1501 0000434 213.9350  75.4855  1.00270853 34126
SES-10                  
1 42432U 17017A   26190.67315128 -.00000260  00000+0  00000+0 0  9999
2 42432   0.0175  43.5004 0002535  74.3522 345.1935  1.00272604 33989
CHINASAT 16 (SJ-13)     
1 42662U 17018A   26191.30363164 -.00000341  00000+0  00000+0 0  9999
2 42662   0.0919  88.9552 0004827 133.8984 285.2198  1.00269850 33984
KOREASAT 7              
1 42691U 17023A   26191.58983988 -.00000352  00000+0  00000+0 0  9991
2 42691   0.0189  54.1596 0000904  85.5557 117.0192  1.00273600 33602
SGDC                    
1 42692U 17023B   26190.40979893 -.00000236  00000+0  00000+0 0  9993
2 42692   0.0136  28.9127 0002359  88.7989 242.3140  1.00270363 33624
GSAT-9                  
1 42695U 17024A   26191.63067243 -.00000276  00000+0  00000+0 0  9994
2 42695   0.0756  91.7964 0002285  27.2963 133.8020  1.00269425 33538
INMARSAT 5-F4           
1 42698U 17025A   26190.99280795  .00000000  00000+0  00000+0 0  9999
2 42698   0.0285  39.4093 0000599 170.9993 131.4380  1.00270257 33500
SES-15                  
1 42709U 17026A   26191.63630890  .00000070  00000+0  00000+0 0  9997
2 42709   0.0248 328.5355 0000309 127.2873 292.6352  1.00266798  7668
QZS-2 (MICHIBIKI-2)     
1 42738U 17028A   26191.45600380 -.00000091  00000+0  00000+0 0  9996
2 42738  39.3930 242.8106 0757969 269.5457  82.5332  1.00277951  7863
VIASAT-2                
1 42740U 17029A   26191.30253051 -.00000255  00000+0  00000+0 0  9995
2 42740   0.0202 302.3496 0000174 272.7054 112.2079  1.00270730 33434
EUTELSAT 172B           
1 42741U 17029B   26191.17320771  .00000005  00000+0  00000+0 0  9997
2 42741   0.0303 125.2258 0000137 110.2477 286.9866  1.00271569 33972
GSAT-19                 
1 42747U 17031A   26191.57636428  .00000135  00000+0  00000+0 0  9993
2 42747   0.0269  86.4399 0006304 359.3378  98.1007  1.00272818 33384
ECHOSTAR 21             
1 42749U 17032A   26191.56882425  .00000076  00000+0  00000+0 0  9999
2 42749   1.7702 357.1754 0002030 107.0273  39.3206  1.00272095 33333
BULGARIASAT-1           
1 42801U 17038A   26191.31503042  .00000022  00000+0  00000+0 0  9993
2 42801   0.0111 313.3363 0003160 161.4514 288.7637  1.00272991 33079
HELLAS-SAT 3            
1 42814U 17040A   26191.57463095  .00000162  00000+0  00000+0 0  9996
2 42814   0.0404  37.7032 0003312  36.1469 100.5177  1.00268970 33043
GSAT-17                 
1 42815U 17040B   26191.55878071 -.00000248  00000+0  00000+0 0  9995
2 42815   0.0600  88.6786 0002085 170.0421 324.4105  1.00271918 33027
INTELSAT 35E (IS-35E)   
1 42818U 17041A   26191.48875340 -.00000228  00000+0  00000+0 0  9995
2 42818   0.0032 111.0474 0001571 358.6024 320.2234  1.00270458 33043
COSMOS 2520             
1 42907U 17046A   26191.43324872  .00000147  00000+0  00000+0 0  9992
2 42907   0.0364 105.7305 0000467  12.6569  10.9309  1.00271858 32632
